STARLINK-35336          
1 66006U 25232B   25310.83336806  .00127779  00000+0  22773-2 0  9995
2 66006  53.1588 316.8366 0001738 108.5414 254.7875 15.49193311  3777
STARLINK-35196          
1 66007U 25232C   25310.83336806  .00104528  00000+0  18690-2 0  9996
2 66007  53.1588 316.8335 0001430 105.1849 260.1557 15.49207794  3777
STARLINK-35236          
1 66008U 25232D   25310.83336806  .00110753  00000+0  19778-2 0  9992
2 66008  53.1589 316.8288 0001479  89.3108 277.9355 15.49215053  3779
STARLINK-35276          
1 66009U 25232E   25310.83336806 -.01958233  00000+0 -39994-1 0  9990
2 66009  53.1591 316.8255 0000789  99.2680 269.7952 15.48832003  3765
STARLINK-35297          
1 66010U 25232F   25310.83336806 -.00155262  00000+0 -28365-2 0  9993
2 66010  53.1589 316.8215 0001117  96.3387 274.7729 15.49336506  3775
STARLINK-35256          
1 66011U 25232G   25310.83336806  .00107980  00000+0  19300-2 0  9995
2 66011  53.1590 316.8044 0001349  81.5999 297.1653 15.49202989  3772
STARLINK-35293          
1 66012U 25232H   25310.83336806  .00108991  00000+0  19475-2 0  9992
2 66012  53.1589 316.8165 0001272  77.1482 295.8636 15.49206369  3770
STARLINK-35307          
1 66013U 25232J   25310.83336806 -.02024204  00000+0 -47774-1 0  9993
2 66013  53.1599 316.8288 0001228  83.5042 283.3045 15.44797320  3708
STARLINK-35395          
1 66014U 25232K   25310.83336806 -.00010421  00000+0 -17975-3 0  9990
2 66014  53.1588 316.8090 0001311  92.0220 284.7902 15.49279493  3768
STARLINK-34622          
1 66015U 25232L   25310.83336806 -.00005169  00000+0 -85030-4 0  9992
2 66015  53.1591 316.7928 0001540  97.3425 287.1645 15.49276168  3667
STARLINK-35243          
1 66016U 25232M   25310.83336806  .00106573  00000+0  19045-2 0  9993
2 66016  53.1591 316.7968 0001520  92.0784 290.5075 15.49214385  3770
STARLINK-35398          
1 66017U 25232N   25310.83336806 -.01751306  00000+0 -43647-1 0  9991
2 66017  53.1598 316.8188 0001173 110.1560 261.4354 15.42723706  3694
