CCSDS_OMM_VERS = 2.0
CREATION_DATE  = 
ORIGINATOR     = 

OBJECT_NAME    = STARLINK-35336
OBJECT_ID      = 2025-232B
CENTER_NAME    = EARTH
REF_FRAME      = TEME
TIME_SYSTEM    = UTC
MEAN_ELEMENT_THEORY = SGP/SGP4

EPOCH          = 2025-11-06T20:00:03.000384
MEAN_MOTION    = 15.49193311
ECCENTRICITY   = .0001738
INCLINATION    = 53.1588
RA_OF_ASC_NODE = 316.8366
ARG_OF_PERICENTER = 108.5414
MEAN_ANOMALY   = 254.7875

EPHEMERIS_TYPE = 0
CLASSIFICATION_TYPE = U
NORAD_CAT_ID   = 66006
ELEMENT_SET_NO = 999
REV_AT_EPOCH   = 377
BSTAR          = .22773E-2
MEAN_MOTION_DOT = .127779E-2
MEAN_MOTION_DDOT = 0

CCSDS_OMM_VERS = 2.0
CREATION_DATE  = 
ORIGINATOR     = 

OBJECT_NAME    = STARLINK-35196
OBJECT_ID      = 2025-232C
CENTER_NAME    = EARTH
REF_FRAME      = TEME
TIME_SYSTEM    = UTC
MEAN_ELEMENT_THEORY = SGP/SGP4

EPOCH          = 2025-11-06T20:00:03.000384
MEAN_MOTION    = 15.49207794
ECCENTRICITY   = .000143
INCLINATION    = 53.1588
RA_OF_ASC_NODE = 316.8335
ARG_OF_PERICENTER = 105.1849
MEAN_ANOMALY   = 260.1557

EPHEMERIS_TYPE = 0
CLASSIFICATION_TYPE = U
NORAD_CAT_ID   = 66007
ELEMENT_SET_NO = 999
REV_AT_EPOCH   = 377
BSTAR          = .1869E-2
MEAN_MOTION_DOT = .104528E-2
MEAN_MOTION_DDOT = 0

CCSDS_OMM_VERS = 2.0
CREATION_DATE  = 
ORIGINATOR     = 

OBJECT_NAME    = STARLINK-35236
OBJECT_ID      = 2025-232D
CENTER_NAME    = EARTH
REF_FRAME      = TEME
TIME_SYSTEM    = UTC
MEAN_ELEMENT_THEORY = SGP/SGP4

EPOCH          = 2025-11-06T20:00:03.000384
MEAN_MOTION    = 15.49215053
ECCENTRICITY   = .0001479
INCLINATION    = 53.1589
RA_OF_ASC_NODE = 316.8288
ARG_OF_PERICENTER = 89.3108
MEAN_ANOMALY   = 277.9355

EPHEMERIS_TYPE = 0
CLASSIFICATION_TYPE = U
NORAD_CAT_ID   = 66008
ELEMENT_SET_NO = 999
REV_AT_EPOCH   = 377
BSTAR          = .19778E-2
MEAN_MOTION_DOT = .110753E-2
MEAN_MOTION_DDOT = 0

CCSDS_OMM_VERS = 2.0
CREATION_DATE  = 
ORIGINATOR     = 

OBJECT_NAME    = STARLINK-35276
OBJECT_ID      = 2025-232E
CENTER_NAME    = EARTH
REF_FRAME      = TEME
TIME_SYSTEM    = UTC
MEAN_ELEMENT_THEORY = SGP/SGP4

EPOCH          = 2025-11-06T20:00:03.000384
MEAN_MOTION    = 15.48832003
ECCENTRICITY   = .0000789
INCLINATION    = 53.1591
RA_OF_ASC_NODE = 316.8255
ARG_OF_PERICENTER = 99.2680
MEAN_ANOMALY   = 269.7952

EPHEMERIS_TYPE = 0
CLASSIFICATION_TYPE = U
NORAD_CAT_ID   = 66009
ELEMENT_SET_NO = 999
REV_AT_EPOCH   = 376
BSTAR          = -.39994E-1
MEAN_MOTION_DOT = -.1958233E-1
MEAN_MOTION_DDOT = 0

CCSDS_OMM_VERS = 2.0
CREATION_DATE  = 
ORIGINATOR     = 

OBJECT_NAME    = STARLINK-35297
OBJECT_ID      = 2025-232F
CENTER_NAME    = EARTH
REF_FRAME      = TEME
TIME_SYSTEM    = UTC
MEAN_ELEMENT_THEORY = SGP/SGP4

EPOCH          = 2025-11-06T20:00:03.000384
MEAN_MOTION    = 15.49336506
ECCENTRICITY   = .0001117
INCLINATION    = 53.1589
RA_OF_ASC_NODE = 316.8215
ARG_OF_PERICENTER = 96.3387
MEAN_ANOMALY   = 274.7729

EPHEMERIS_TYPE = 0
CLASSIFICATION_TYPE = U
NORAD_CAT_ID   = 66010
ELEMENT_SET_NO = 999
REV_AT_EPOCH   = 377
BSTAR          = -.28365E-2
MEAN_MOTION_DOT = -.155262E-2
MEAN_MOTION_DDOT = 0

CCSDS_OMM_VERS = 2.0
CREATION_DATE  = 
ORIGINATOR     = 

OBJECT_NAME    = STARLINK-35256
OBJECT_ID      = 2025-232G
CENTER_NAME    = EARTH
REF_FRAME      = TEME
TIME_SYSTEM    = UTC
MEAN_ELEMENT_THEORY = SGP/SGP4

EPOCH          = 2025-11-06T20:00:03.000384
MEAN_MOTION    = 15.49202989
ECCENTRICITY   = .0001349
INCLINATION    = 53.1590
RA_OF_ASC_NODE = 316.8044
ARG_OF_PERICENTER = 81.5999
MEAN_ANOMALY   = 297.1653

EPHEMERIS_TYPE = 0
CLASSIFICATION_TYPE = U
NORAD_CAT_ID   = 66011
ELEMENT_SET_NO = 999
REV_AT_EPOCH   = 377
BSTAR          = .193E-2
MEAN_MOTION_DOT = .10798E-2
MEAN_MOTION_DDOT = 0

CCSDS_OMM_VERS = 2.0
CREATION_DATE  = 
ORIGINATOR     = 

OBJECT_NAME    = STARLINK-35293
OBJECT_ID      = 2025-232H
CENTER_NAME    = EARTH
REF_FRAME      = TEME
TIME_SYSTEM    = UTC
MEAN_ELEMENT_THEORY = SGP/SGP4

EPOCH          = 2025-11-06T20:00:03.000384
MEAN_MOTION    = 15.49206369
ECCENTRICITY   = .0001272
INCLINATION    = 53.1589
RA_OF_ASC_NODE = 316.8165
ARG_OF_PERICENTER = 77.1482
MEAN_ANOMALY   = 295.8636

EPHEMERIS_TYPE = 0
CLASSIFICATION_TYPE = U
NORAD_CAT_ID   = 66012
ELEMENT_SET_NO = 999
REV_AT_EPOCH   = 377
BSTAR          = .19475E-2
MEAN_MOTION_DOT = .108991E-2
MEAN_MOTION_DDOT = 0

CCSDS_OMM_VERS = 2.0
CREATION_DATE  = 
ORIGINATOR     = 

OBJECT_NAME    = STARLINK-35307
OBJECT_ID      = 2025-232J
CENTER_NAME    = EARTH
REF_FRAME      = TEME
TIME_SYSTEM    = UTC
MEAN_ELEMENT_THEORY = SGP/SGP4

EPOCH          = 2025-11-06T20:00:03.000384
MEAN_MOTION    = 15.44797320
ECCENTRICITY   = .0001228
INCLINATION    = 53.1599
RA_OF_ASC_NODE = 316.8288
ARG_OF_PERICENTER = 83.5042
MEAN_ANOMALY   = 283.3045

EPHEMERIS_TYPE = 0
CLASSIFICATION_TYPE = U
NORAD_CAT_ID   = 66013
ELEMENT_SET_NO = 999
REV_AT_EPOCH   = 370
BSTAR          = -.47774E-1
MEAN_MOTION_DOT = -.2024204E-1
MEAN_MOTION_DDOT = 0

CCSDS_OMM_VERS = 2.0
CREATION_DATE  = 
ORIGINATOR     = 

OBJECT_NAME    = STARLINK-35395
OBJECT_ID      = 2025-232K
CENTER_NAME    = EARTH
REF_FRAME      = TEME
TIME_SYSTEM    = UTC
MEAN_ELEMENT_THEORY = SGP/SGP4

EPOCH          = 2025-11-06T20:00:03.000384
MEAN_MOTION    = 15.49279493
ECCENTRICITY   = .0001311
INCLINATION    = 53.1588
RA_OF_ASC_NODE = 316.8090
ARG_OF_PERICENTER = 92.0220
MEAN_ANOMALY   = 284.7902

EPHEMERIS_TYPE = 0
CLASSIFICATION_TYPE = U
NORAD_CAT_ID   = 66014
ELEMENT_SET_NO = 999
REV_AT_EPOCH   = 376
BSTAR          = -.17975E-3
MEAN_MOTION_DOT = -.10421E-3
MEAN_MOTION_DDOT = 0

CCSDS_OMM_VERS = 2.0
CREATION_DATE  = 
ORIGINATOR     = 

OBJECT_NAME    = STARLINK-34622
OBJECT_ID      = 2025-232L
CENTER_NAME    = EARTH
REF_FRAME      = TEME
TIME_SYSTEM    = UTC
MEAN_ELEMENT_THEORY = SGP/SGP4

EPOCH          = 2025-11-06T20:00:03.000384
MEAN_MOTION    = 15.49276168
ECCENTRICITY   = .000154
INCLINATION    = 53.1591
RA_OF_ASC_NODE = 316.7928
ARG_OF_PERICENTER = 97.3425
MEAN_ANOMALY   = 287.1645

EPHEMERIS_TYPE = 0
CLASSIFICATION_TYPE = U
NORAD_CAT_ID   = 66015
ELEMENT_SET_NO = 999
REV_AT_EPOCH   = 366
BSTAR          = -.8503E-4
MEAN_MOTION_DOT = -.5169E-4
MEAN_MOTION_DDOT = 0

CCSDS_OMM_VERS = 2.0
CREATION_DATE  = 
ORIGINATOR     = 

OBJECT_NAME    = STARLINK-35243
OBJECT_ID      = 2025-232M
CENTER_NAME    = EARTH
REF_FRAME      = TEME
TIME_SYSTEM    = UTC
MEAN_ELEMENT_THEORY = SGP/SGP4

EPOCH          = 2025-11-06T20:00:03.000384
MEAN_MOTION    = 15.49214385
ECCENTRICITY   = .000152
INCLINATION    = 53.1591
RA_OF_ASC_NODE = 316.7968
ARG_OF_PERICENTER = 92.0784
MEAN_ANOMALY   = 290.5075

EPHEMERIS_TYPE = 0
CLASSIFICATION_TYPE = U
NORAD_CAT_ID   = 66016
ELEMENT_SET_NO = 999
REV_AT_EPOCH   = 377
BSTAR          = .19045E-2
MEAN_MOTION_DOT = .106573E-2
MEAN_MOTION_DDOT = 0

CCSDS_OMM_VERS = 2.0
CREATION_DATE  = 
ORIGINATOR     = 

OBJECT_NAME    = STARLINK-35398
OBJECT_ID      = 2025-232N
CENTER_NAME    = EARTH
REF_FRAME      = TEME
TIME_SYSTEM    = UTC
MEAN_ELEMENT_THEORY = SGP/SGP4

EPOCH          = 2025-11-06T20:00:03.000384
MEAN_MOTION    = 15.42723706
ECCENTRICITY   = .0001173
INCLINATION    = 53.1598
RA_OF_ASC_NODE = 316.8188
ARG_OF_PERICENTER = 110.1560
MEAN_ANOMALY   = 261.4354

EPHEMERIS_TYPE = 0
CLASSIFICATION_TYPE = U
NORAD_CAT_ID   = 66017
ELEMENT_SET_NO = 999
REV_AT_EPOCH   = 369
BSTAR          = -.43647E-1
MEAN_MOTION_DOT = -.1751306E-1
MEAN_MOTION_DDOT = 0

